NORAD_CAT_ID,OBJECT_NAME,OBJECT_TYPE,EPOCH,MEAN_MOTION,ECCENTRICITY,INCLINATION,RA_OF_ASC_NODE,ARG_OF_PERICENTER,MEAN_ANOMALY,BSTAR,MEAN_MOTION_DOT,MEAN_MOTION_DDOT,TLE_LINE0,TLE_LINE1,TLE_LINE2,SEMIMAJOR_AXIS,PERIOD,APOGEE,PERIGEE,DECAYED
52289.0,STARLINK-3751,PAYLOAD,2023-12-04 00:52:56,15.08803612,0.0001398,53.2159,210.1092,100.1338,259.9812,-0.00067138,-0.00010946,0.0,0 STARLINK-3751,1 52289U 22041AE  23338.03676368 -.00010946  00000-0 -67138-3 0  9993,2 52289  53.2159 210.1092 0001398 100.1338 259.9812 15.08803612 89709,6917.992,95.44,540.824,538.889,0.0
52289.0,STARLINK-3751,PAYLOAD,2023-12-05 00:43:44,15.0882312,0.0001445,53.2167,205.6528,79.597,280.5185,-1.5998e-05,-5.42e-06,0.0,0 STARLINK-3751,1 52289U 22041AE  23339.03037392 -.00000542  00000-0 -15998-4 0  9991,2 52289  53.2167 205.6528 0001445  79.5970 280.5185 15.08823120 91077,6917.932,95.439,540.797,538.797,0.0
52289.0,STARLINK-3751,PAYLOAD,2023-12-07 00:25:17,15.08854846,0.0001449,53.2162,196.7325,70.6259,289.4889,0.00038719,5.882e-05,0.0,0 STARLINK-3751,1 52289U 22041AE  23341.01756503  .00005882  00000-0  38719-3 0  9999,2 52289  53.2162 196.7325 0001449  70.6259 289.4889 15.08854846 91374,6917.835,95.437,540.702,538.698,0.0
52289.0,STARLINK-3751,PAYLOAD,2023-12-08 00:16:04,15.08846072,0.0002103,53.2167,192.2708,73.4471,286.6752,9.958e-07,-2.72e-06,0.0,0 STARLINK-3751,1 52289U 22041AE  23342.01116425 -.00000272  00000-0  99580-6 0  9998,2 52289  53.2167 192.2708 0002103  73.4471 286.6752 15.08846072 91527,6917.862,95.437,541.182,538.272,0.0
52289.0,STARLINK-3751,PAYLOAD,2023-12-08 14:34:32,15.08841492,7.59e-05,53.2166,189.5952,79.9705,280.1373,-0.00012154,-2.221e-05,0.0,0 STARLINK-3751,1 52289U 22041AE  23342.60732271 -.00002221  00000-0 -12154-3 0  9992,2 52289  53.2166 189.5952 0000759  79.9705 280.1373 15.08841492 90395,6917.876,95.437,540.266,539.216,0.0
52289.0,STARLINK-3751,PAYLOAD,2023-12-09 12:49:56,15.08845913,0.0001663,53.215,185.4313,93.3087,266.8095,-0.00014564,-2.606e-05,0.0,0 STARLINK-3751,1 52289U 22041AE  23343.53467689 -.00002606  00000-0 -14564-3 0  9997,2 52289  53.2150 185.4313 0001663  93.3087 266.8095 15.08845913 90532,6917.862,95.437,540.878,538.577,0.0
52289.0,STARLINK-3751,PAYLOAD,2023-12-09 16:00:42,15.08836283,0.0001344,53.2151,184.8359,90.1682,269.9464,0.00017006,2.419e-05,0.0,0 STARLINK-3751,1 52289U 22041AE  23343.66716342  .00002419  00000-0  17006-3 0  9998,2 52289  53.2151 184.8359 0001344  90.1682 269.9464 15.08836283 91779,6917.892,95.438,540.687,538.827,0.0
52289.0,STARLINK-3751,PAYLOAD,2023-12-10 19:02:16,15.08839379,0.0001304,53.2149,179.7815,93.2456,266.8686,6.6355e-05,7.68e-06,0.0,0 STARLINK-3751,1 52289U 22041AE  23344.79324222  .00000768  00000-0  66355-4 0  9992,2 52289  53.2149 179.7815 0001304  93.2456 266.8686 15.08839379 91945,6917.882,95.438,540.649,538.845,0.0
52289.0,STARLINK-3751,PAYLOAD,2023-12-10 20:37:39,15.08838753,0.0001299,53.2159,179.4838,98.2008,261.9131,9.1836e-05,1.174e-05,0.0,0 STARLINK-3751,1 52289U 22041AE  23344.85948443  .00001174  00000-0  91836-4 0  9990,2 52289  53.2159 179.4838 0001299  98.2008 261.9131 15.08838753 90731,6917.884,95.438,540.648,538.851,0.0
52289.0,STARLINK-3751,PAYLOAD,2023-12-11 20:28:26,15.08843019,0.0001305,53.216,175.0233,97.6862,262.4279,0.00010224,1.34e-05,0.0,0 STARLINK-3751,1 52289U 22041AE  23345.85308165  .00001340  00000-0  10224-3 0  9998,2 52289  53.2160 175.0233 0001305  97.6862 262.4279 15.08843019 90889,6917.871,95.437,540.639,538.833,0.0
52289.0,STARLINK-3751,PAYLOAD,2023-12-12 18:43:49,15.08845415,0.0001343,53.2165,170.8581,93.4774,266.6371,0.00011712,1.577e-05,0.0,0 STARLINK-3751,1 52289U 22041AE  23346.78043954  .00001577  00000-0  11712-3 0  9998,2 52289  53.2165 170.8581 0001343  93.4774 266.6371 15.08845415 91029,6917.864,95.437,540.658,538.8,0.0
52289.0,STARLINK-3751,PAYLOAD,2023-12-13 18:34:37,15.08842782,0.0001299,53.2158,166.4007,97.0512,263.0628,4.7323e-05,4.65e-06,0.0,0 STARLINK-3751,1 52289U 22041AE  23347.77404143  .00000465  00000-0  47323-4 0  9992,2 52289  53.2158 166.4007 0001299  97.0512 263.0628 15.08842782 92396,6917.872,95.437,540.636,538.838,0.0
52289.0,STARLINK-3751,PAYLOAD,2023-12-14 18:25:24,15.08837351,0.0001299,53.2157,161.9382,92.8525,267.2616,3.4191e-05,2.56e-06,0.0,0 STARLINK-3751,1 52289U 22041AE  23348.76764564  .00000256  00000-0  34191-4 0  9995,2 52289  53.2157 161.9382 0001299  92.8525 267.2616 15.08837351 92544,6917.888,95.438,540.652,538.855,0.0
52289.0,STARLINK-3751,PAYLOAD,2023-12-15 18:16:11,15.08837383,0.0001274,53.2163,157.4766,94.7697,265.344,7.4564e-05,8.99e-06,0.0,0 STARLINK-3751,1 52289U 22041AE  23349.76124644  .00000899  00000-0  74564-4 0  9996,2 52289  53.2163 157.4766 0001274  94.7697 265.3440 15.08837383 91471,6917.888,95.438,540.635,538.872,0.0
52289.0,STARLINK-3751,PAYLOAD,2023-12-16 14:56:12,15.08840651,0.0001217,53.2167,153.6108,88.3275,271.7857,0.00012154,1.647e-05,0.0,0 STARLINK-3751,1 52289U 22041AE  23350.62236558  .00001647  00000-0  12154-3 0  9999,2 52289  53.2167 153.6108 0001217  88.3275 271.7857 15.08840651 91601,6917.878,95.438,540.585,538.901,0.0
52289.0,STARLINK-3751,PAYLOAD,2023-12-16 18:06:58,15.08843036,0.0001235,53.2166,153.016,90.215,269.8983,0.00014014,1.943e-05,0.0,0 STARLINK-3751,1 52289U 22041AE  23350.75484386  .00001943  00000-0  14014-3 0  9993,2 52289  53.2166 153.0160 0001235  90.2150 269.8983 15.08843036 92841,6917.871,95.437,540.59,538.882,0.0
52289.0,STARLINK-3751,PAYLOAD,2023-12-17 14:46:59,15.08838233,0.0001248,53.2165,149.1502,93.4592,266.6542,5.8603e-05,6.45e-06,0.0,0 STARLINK-3751,1 52289U 22041AE  23351.61597008  .00000645  00000-0  58603-4 0  9996,2 52289  53.2165 149.1502 0001248  93.4592 266.6542 15.08838233 91753,6917.886,95.438,540.614,538.887,0.0
52289.0,STARLINK-3751,PAYLOAD,2023-12-17 16:22:22,15.08838195,0.000125,53.2165,148.8529,93.4244,266.6891,5.4253e-05,5.76e-06,0.0,0 STARLINK-3751,1 52289U 22041AE  23351.68221008  .00000576  00000-0  54253-4 0  9997,2 52289  53.2165 148.8529 0001250  93.4244 266.6891 15.08838195 92985,6917.886,95.438,540.616,538.886,0.0
52289.0,STARLINK-3751,PAYLOAD,2023-12-18 14:37:46,15.08843864,0.0001278,53.2164,144.6895,99.9627,260.1509,7.3861e-05,8.88e-06,0.0,0 STARLINK-3751,1 52289U 22041AE  23352.60956578  .00000888  00000-0  73861-4 0  9999,2 52289  53.2164 144.6895 0001278  99.9627 260.1509 15.08843864 91905,6917.869,95.437,540.618,538.849,0.0
52289.0,STARLINK-3751,PAYLOAD,2023-12-18 17:48:32,15.08847351,0.0001255,53.2164,144.0953,94.2394,265.8741,9.8968e-05,1.288e-05,0.0,0 STARLINK-3751,1 52289U 22041AE  23352.74204292  .00001288  00000-0  98968-4 0  9993,2 52289  53.2164 144.0953 0001255  94.2394 265.8741 15.08847351 93141,6917.858,95.437,540.591,538.855,0.0
52289.0,STARLINK-3751,PAYLOAD,2023-12-19 14:28:33,15.08837019,0.0001301,53.2164,140.2291,95.1598,264.9543,3.6861e-05,2.99e-06,0.0,0 STARLINK-3751,1 52289U 22041AE  23353.60316967  .00000299  00000-0  36861-4 0  9997,2 52289  53.2164 140.2291 0001301  95.1598 264.9543 15.08837019 92051,6917.89,95.438,540.655,538.854,0.0
52289.0,STARLINK-3751,PAYLOAD,2023-12-19 17:39:20,15.08838707,0.0001336,53.2168,139.6374,90.8533,269.2612,7.6368e-05,9.28e-06,0.0,0 STARLINK-3751,1 52289U 22041AE  23353.73564993  .00000928  00000-0  76368-4 0  9990,2 52289  53.2168 139.6374 0001336  90.8533 269.2612 15.08838707 93295,6917.884,95.438,540.674,538.825,0.0
52289.0,STARLINK-3751,PAYLOAD,2023-12-20 15:54:44,15.08841176,0.0001495,53.2163,135.4772,69.1736,290.9417,3.5938e-05,2.84e-06,0.0,0 STARLINK-3751,1 52289U 22041AE  23354.66301275  .00000284  00000-0  35938-4 0  9998,2 52289  53.2163 135.4772 0001495  69.1736 290.9417 15.08841176 92215,6917.877,95.437,540.776,538.708,0.0
52289.0,STARLINK-3751,PAYLOAD,2023-12-21 14:10:08,15.08844037,0.0001453,53.2163,131.3177,74.2283,285.8869,0.00017549,2.506e-05,0.0,0 STARLINK-3751,1 52289U 22041AE  23355.59037238  .00002506  00000-0  17549-3 0  9992,2 52289  53.2163 131.3177 0001453  74.2283 285.8869 15.08844037 92355,6917.868,95.437,540.738,538.728,0.0
52289.0,STARLINK-3751,PAYLOAD,2023-12-21 15:45:31,15.0884499,0.0001466,53.2162,131.0216,73.4846,286.6307,0.00018596,2.673e-05,0.0,0 STARLINK-3751,1 52289U 22041AE  23355.65661203  .00002673  00000-0  18596-3 0  9992,2 52289  53.2162 131.0216 0001466  73.4846 286.6307 15.08844990 92360,6917.865,95.437,540.744,538.716,0.0
52289.0,STARLINK-3751,PAYLOAD,2023-12-22 14:00:55,15.08843118,0.0001532,53.218,126.8588,99.363,260.7536,7.7042e-05,9.38e-06,0.0,0 STARLINK-3751,1 52289U 22041AE  23356.58397127  .00000938  00000-0  77042-4 0  9990,2 52289  53.2180 126.8588 0001532  99.3630 260.7536 15.08843118 92500,6917.871,95.437,540.796,538.676,0.0
52289.0,STARLINK-3751,PAYLOAD,2023-12-22 15:36:18,15.08843986,0.0001503,53.2177,126.5588,94.2557,265.8607,8.599e-05,1.081e-05,0.0,0 STARLINK-3751,1 52289U 22041AE  23356.65021053  .00001081  00000-0  85990-4 0  9991,2 52289  53.2177 126.5588 0001503  94.2557 265.8607 15.08843986 93737,6917.868,95.437,540.773,538.693,0.0
52289.0,STARLINK-3751,PAYLOAD,2023-12-23 13:51:41,15.08844665,0.0001626,53.2192,122.3981,114.3825,245.7337,4.5347e-05,4.34e-06,0.0,0 STARLINK-3751,1 52289U 22041AE  23357.57756883  .00000434  00000-0  45347-4 0  9992,2 52289  53.2192 122.3981 0001626 114.3825 245.7337 15.08844665 92655,6917.866,95.437,540.856,538.606,0.0
52289.0,STARLINK-3751,PAYLOAD,2023-12-24 12:07:06,15.08841769,0.000135,53.2186,118.2347,101.2534,258.861,6.398e-05,7.31e-06,0.0,0 STARLINK-3751,1 52289U 22041AE  23358.50493069  .00000731  00000-0  63980-4 0  9993,2 52289  53.2186 118.2347 0001350 101.2534 258.8610 15.08841769 94017,6917.875,95.437,540.674,538.806,0.0
52289.0,STARLINK-3751,PAYLOAD,2023-12-24 13:42:29,15.08844417,0.0001257,53.2177,117.9338,91.6806,268.433,5.8986e-05,6.51e-06,0.0,0 STARLINK-3751,1 52289U 22041AE  23358.57116899  .00000651  00000-0  58986-4 0  9994,2 52289  53.2177 117.9338 0001257  91.6806 268.4330 15.08844417 92807,6917.867,95.437,540.601,538.862,0.0
